[{"OBJECT_NAME":"DONGPO 08","OBJECT_ID":"2022-167E","EPOCH":"2026-03-09T22:57:52.742880","MEAN_MOTION":15.31542505,"ECCENTRICITY":0.00092155,"INCLINATION":97.6764,"RA_OF_ASC_NODE":233.3854,"ARG_OF_PERICENTER":153.9158,"MEAN_ANOMALY":206.2548,"EPHEMERIS_TYPE":0,"CLASSIFICATION_TYPE":"U","NORAD_CAT_ID":54686,"ELEMENT_SET_NO":999,"REV_AT_EPOCH":18012,"BSTAR":0.0004734784,"MEAN_MOTION_DOT":0.0001437,"MEAN_MOTION_DDOT":0},{"OBJECT_NAME":"STARLINK-30100","OBJECT_ID":"2023-119X","EPOCH":"2026-03-09T22:00:01.999584","MEAN_MOTION":15.17573098,"ECCENTRICITY":0.00019511,"INCLINATION":43.0003,"RA_OF_ASC_NODE":79.9179,"ARG_OF_PERICENTER":284.7245,"MEAN_ANOMALY":141.6693,"EPHEMERIS_TYPE":0,"CLASSIFICATION_TYPE":"U","NORAD_CAT_ID":57623,"ELEMENT_SET_NO":999,"REV_AT_EPOCH":573,"BSTAR":0.052332137,"MEAN_MOTION_DOT":0.01165297,"MEAN_MOTION_DDOT":0}]
